start=new Date('2023-05-05T00:00:00.000Z').valueOf();
sats=[{"SEMIMAJOR_AXIS":"6917.911","MEAN_MOTION_DOT":"-0.00001943","DECAY_DATE":null,"MEAN_ANOMALY":"245.7674","MEAN_MOTION":"15.08830067","NORAD_CAT_ID":"49441","REF_FRAME":"TEME","BSTAR":"-0.00010405000000","CLASSIFICATION_TYPE":"U","SITE":"AFETR","EPHEMERIS_TYPE":"0","ELEMENT_SET_NO":"999","PERIOD":"95.438","OBJECT_NAME":"STARLINK-3128","RCS_SIZE":"LARGE","FILE":"3901186","APOAPSIS":"540.403","TLE_LINE2":"2 49441  53.2179 196.9258 0000906 114.3413 245.7674 15.08830067 81948","ARG_OF_PERICENTER":"114.3413","MEAN_ELEMENT_THEORY":"SGP4","COUNTRY_CODE":"US","LAUNCH_DATE":"2021-11-13","OBJECT_ID":"2021-104AK","CENTER_NAME":"EARTH","GP_ID":"231271103","TLE_LINE1":"1 49441U 21104AK  23124.89920959 -.00001943  00000-0 -10405-3 0  9995","ECCENTRICITY":"0.00009060","INCLINATION":"53.2179","EPOCH":"2023-05-04T21:34:51.708576","PERIAPSIS":"539.149","REV_AT_EPOCH":"8194","TIME_SYSTEM":"UTC","MEAN_MOTION_DDOT":"0.0000000000000","RA_OF_ASC_NODE":"196.9258","OBJECT_TYPE":"PAYLOAD"},{"SEMIMAJOR_AXIS":"6917.867","MEAN_MOTION_DOT":"0.00002022","MEAN_ANOMALY":"255.0448","DECAY_DATE":null,"NORAD_CAT_ID":"49442","MEAN_MOTION":"15.08844480","BSTAR":"0.00014505000000","REF_FRAME":"TEME","CLASSIFICATION_TYPE":"U","SITE":"AFETR","ELEMENT_SET_NO":"999","EPHEMERIS_TYPE":"0","OBJECT_NAME":"STARLINK-3098","PERIOD":"95.437","RCS_SIZE":"LARGE","FILE":"3900838","APOAPSIS":"540.565","TLE_LINE2":"2 49442  53.2165 198.3388 0001204 105.0678 255.0448 15.08844480 82977","ARG_OF_PERICENTER":"105.0678","MEAN_ELEMENT_THEORY":"SGP4","COUNTRY_CODE":"US","LAUNCH_DATE":"2021-11-13","CENTER_NAME":"EARTH","OBJECT_ID":"2021-104AL","TLE_LINE1":"1 49442U 21104AL  23124.58271795  .00002022  00000-0  14505-3 0  9991","INCLINATION":"53.2165","ECCENTRICITY":"0.00012040","GP_ID":"231215086","REV_AT_EPOCH":"8297","TIME_SYSTEM":"UTC","EPOCH":"2023-05-04T13:59:06.830880","PERIAPSIS":"538.899","MEAN_MOTION_DDOT":"0.0000000000000","OBJECT_TYPE":"PAYLOAD","RA_OF_ASC_NODE":"198.3388"},{"APOAPSIS":"540.507","TLE_LINE2":"2 49443  53.2171 196.9407 0001103 104.0678 256.0437 15.08840462 81949","ARG_OF_PERICENTER":"104.0678","MEAN_ELEMENT_THEORY":"SGP4","COUNTRY_CODE":"US","OBJECT_ID":"2021-104AM","CENTER_NAME":"EARTH","LAUNCH_DATE":"2021-11-13","PERIAPSIS":"538.981","EPOCH":"2023-05-04T21:29:33.201888","REV_AT_EPOCH":"8194","TIME_SYSTEM":"UTC","GP_ID":"231271606","INCLINATION":"53.2171","TLE_LINE1":"1 49443U 21104AM  23124.89552317  .00002194  00000-0  15591-3 0  9994","ECCENTRICITY":"0.00011030","RA_OF_ASC_NODE":"196.9407","OBJECT_TYPE":"PAYLOAD","MEAN_MOTION_DDOT":"0.0000000000000","MEAN_MOTION_DOT":"0.00002194","SEMIMAJOR_AXIS":"6917.879","DECAY_DATE":null,"MEAN_ANOMALY":"256.0437","REF_FRAME":"TEME","BSTAR":"0.00015591000000","MEAN_MOTION":"15.08840462","NORAD_CAT_ID":"49443","CLASSIFICATION_TYPE":"U","SITE":"AFETR","PERIOD":"95.438","OBJECT_NAME":"STARLINK-3136","EPHEMERIS_TYPE":"0","ELEMENT_SET_NO":"999","FILE":"3901186","RCS_SIZE":"LARGE"},{"APOAPSIS":"540.831","TLE_LINE2":"2 49444  53.2157 196.8759 0001560  85.7848 274.3322 15.08837991 81943","ARG_OF_PERICENTER":"85.7848","MEAN_ELEMENT_THEORY":"SGP4","COUNTRY_CODE":"US","CENTER_NAME":"EARTH","OBJECT_ID":"2021-104AN","LAUNCH_DATE":"2021-11-13","REV_AT_EPOCH":"8194","TIME_SYSTEM":"UTC","PERIAPSIS":"538.672","EPOCH":"2023-05-04T21:52:07.791456","TLE_LINE1":"1 49444U 21104AN  23124.91120129  .00001860  00000-0  13495-3 0  9990","ECCENTRICITY":"0.00015600","INCLINATION":"53.2157","GP_ID":"231270851","OBJECT_TYPE":"PAYLOAD","RA_OF_ASC_NODE":"196.8759","MEAN_MOTION_DDOT":"0.0000000000000","MEAN_MOTION_DOT":"0.00001860","SEMIMAJOR_AXIS":"6917.887","MEAN_ANOMALY":"274.3322","DECAY_DATE":null,"BSTAR":"0.00013495000000","REF_FRAME":"TEME","NORAD_CAT_ID":"49444","MEAN_MOTION":"15.08837991","CLASSIFICATION_TYPE":"U","SITE":"AFETR","OBJECT_NAME":"STARLINK-3126","PERIOD":"95.438","ELEMENT_SET_NO":"999","EPHEMERIS_TYPE":"0","FILE":"3901186","RCS_SIZE":"LARGE"},{"CLASSIFICATION_TYPE":"U","SITE":"AFETR","PERIOD":"95.438","OBJECT_NAME":"STARLINK-3122","EPHEMERIS_TYPE":"0","ELEMENT_SET_NO":"999","FILE":"3901152","RCS_SIZE":"LARGE","MEAN_MOTION_DOT":"0.00005166","SEMIMAJOR_AXIS":"6917.884","DECAY_DATE":null,"MEAN_ANOMALY":"277.9136","REF_FRAME":"TEME","BSTAR":"0.00034242000000","MEAN_MOTION":"15.08838853","NORAD_CAT_ID":"49445","COUNTRY_CODE":"US","OBJECT_ID":"2021-104AP","CENTER_NAME":"EARTH","LAUNCH_DATE":"2021-11-13","PERIAPSIS":"538.937","EPOCH":"2023-05-04T22:10:37.189056","REV_AT_EPOCH":"8288","TIME_SYSTEM":"UTC","GP_ID":"231248845","TLE_LINE1":"1 49445U 21104AP  23124.92404154  .00005166  00000-0  34242-3 0  9991","INCLINATION":"53.2171","ECCENTRICITY":"0.00011730","RA_OF_ASC_NODE":"206.8074","OBJECT_TYPE":"PAYLOAD","MEAN_MOTION_DDOT":"0.0000000000000","APOAPSIS":"540.560","TLE_LINE2":"2 49445  53.2171 206.8074 0001173  82.1989 277.9136 15.08838853 82883","ARG_OF_PERICENTER":"82.1989","MEAN_ELEMENT_THEORY":"SGP4"},{"ARG_OF_PERICENTER":"92.0161","MEAN_ELEMENT_THEORY":"SGP4","APOAPSIS":"540.721","TLE_LINE2":"2 49446  53.2162 196.8854 0001400  92.0161 268.0992 15.08837732 81945","TIME_SYSTEM":"UTC","REV_AT_EPOCH":"8194","EPOCH":"2023-05-04T21:45:27.010368","PERIAPSIS":"538.784","TLE_LINE1":"1 49446U 21104AQ  23124.90656262  .00001869  00000-0  13552-3 0  9996","ECCENTRICITY":"0.00014000","INCLINATION":"53.2162","GP_ID":"231271855","OBJECT_TYPE":"PAYLOAD","RA_OF_ASC_NODE":"196.8854","MEAN_MOTION_DDOT":"0.0000000000000","COUNTRY_CODE":"US","CENTER_NAME":"EARTH","OBJECT_ID":"2021-104AQ","LAUNCH_DATE":"2021-11-13","BSTAR":"0.00013552000000","REF_FRAME":"TEME","NORAD_CAT_ID":"49446","MEAN_MOTION":"15.08837732","MEAN_MOTION_DOT":"0.00001869","SEMIMAJOR_AXIS":"6917.887","MEAN_ANOMALY":"268.0992","DECAY_DATE":null,"OBJECT_NAME":"STARLINK-3099","PERIOD":"95.438","ELEMENT_SET_NO":"999","EPHEMERIS_TYPE":"0","FILE":"3901186","RCS_SIZE":"LARGE","SITE":"AFETR","CLASSIFICATION_TYPE":"U"},{"LAUNCH_DATE":"2021-11-13","OBJECT_ID":"2021-104AR","CENTER_NAME":"EARTH","COUNTRY_CODE":"US","MEAN_MOTION_DDOT":"0.0000000000000","RA_OF_ASC_NODE":"208.6283","OBJECT_TYPE":"PAYLOAD","GP_ID":"231237298","INCLINATION":"53.2160","TLE_LINE1":"1 49447U 21104AR  23124.51924282  .00003867  00000-0  26087-3 0  9991","ECCENTRICITY":"0.00005310","EPOCH":"2023-05-04T12:27:42.579648","PERIAPSIS":"539.379","REV_AT_EPOCH":"8174","TIME_SYSTEM":"UTC","TLE_LINE2":"2 49447  53.2160 208.6283 0000531  68.4808 291.6240 15.08839683 81744","APOAPSIS":"540.114","MEAN_ELEMENT_THEORY":"SGP4","ARG_OF_PERICENTER":"68.4808","CLASSIFICATION_TYPE":"U","SITE":"AFETR","RCS_SIZE":"LARGE","FILE":"3900892","EPHEMERIS_TYPE":"0","ELEMENT_SET_NO":"999","PERIOD":"95.438","OBJECT_NAME":"STARLINK-3115","DECAY_DATE":null,"MEAN_ANOMALY":"291.6240","SEMIMAJOR_AXIS":"6917.881","MEAN_MOTION_DOT":"0.00003867","MEAN_MOTION":"15.08839683","NORAD_CAT_ID":"49447","REF_FRAME":"TEME","BSTAR":"0.00026087000000"},{"MEAN_MOTION":"15.08839141","NORAD_CAT_ID":"49448","REF_FRAME":"TEME","BSTAR":"-0.00002997700000","DECAY_DATE":null,"MEAN_ANOMALY":"264.3935","SEMIMAJOR_AXIS":"6917.883","MEAN_MOTION_DOT":"-0.00000765","RCS_SIZE":"LARGE","FILE":"3901186","EPHEMERIS_TYPE":"0","ELEMENT_SET_NO":"999","PERIOD":"95.438","OBJECT_NAME":"STARLINK-3097","CLASSIFICATION_TYPE":"U","SITE":"AFETR","MEAN_ELEMENT_THEORY":"SGP4","ARG_OF_PERICENTER":"95.7165","TLE_LINE2":"2 49448  53.2168 208.3071 0000948  95.7165 264.3935 15.08839141 81754","APOAPSIS":"540.404","MEAN_MOTION_DDOT":"0.0000000000000","RA_OF_ASC_NODE":"208.3071","OBJECT_TYPE":"PAYLOAD","GP_ID":"231270352","ECCENTRICITY":"0.00009480","TLE_LINE1":"1 49448U 21104AS  23124.60115955 -.00000765  00000-0 -29977-4 0  9999","INCLINATION":"53.2168","EPOCH":"2023-05-04T14:25:40.185120","PERIAPSIS":"539.092","REV_AT_EPOCH":"8175","TIME_SYSTEM":"UTC","LAUNCH_DATE":"2021-11-13","OBJECT_ID":"2021-104AS","CENTER_NAME":"EARTH","COUNTRY_CODE":"US"},{"RA_OF_ASC_NODE":"208.0490","OBJECT_TYPE":"PAYLOAD","MEAN_MOTION_DDOT":"0.0000000000000","PERIAPSIS":"538.979","EPOCH":"2023-05-04T15:33:10.611072","REV_AT_EPOCH":"8176","TIME_SYSTEM":"UTC","GP_ID":"231271104","TLE_LINE1":"1 49449U 21104AT  23124.64803948  .00010540  00000-0  67912-3 0  9990","ECCENTRICITY":"0.00010590","INCLINATION":"53.2164","OBJECT_ID":"2021-104AT","CENTER_NAME":"EARTH","LAUNCH_DATE":"2021-11-13","COUNTRY_CODE":"US","MEAN_ELEMENT_THEORY":"SGP4","ARG_OF_PERICENTER":"84.4596","TLE_LINE2":"2 49449  53.2164 208.0490 0001059  84.4596 275.6516 15.08851156 81761","APOAPSIS":"540.444","FILE":"3901186","RCS_SIZE":"LARGE","PERIOD":"95.437","OBJECT_NAME":"STARLINK-3137","EPHEMERIS_TYPE":"0","ELEMENT_SET_NO":"999","SITE":"AFETR","CLASSIFICATION_TYPE":"U","REF_FRAME":"TEME","BSTAR":"0.00067912000000","MEAN_MOTION":"15.08851156","NORAD_CAT_ID":"49449","DECAY_DATE":null,"MEAN_ANOMALY":"275.6516","MEAN_MOTION_DOT":"0.00010540","SEMIMAJOR_AXIS":"6917.846"},{"CLASSIFICATION_TYPE":"U","SITE":"AFETR","ELEMENT_SET_NO":"999","EPHEMERIS_TYPE":"0","OBJECT_NAME":"STARLINK-3127","PERIOD":"95.437","RCS_SIZE":"LARGE","FILE":"3900917","SEMIMAJOR_AXIS":"6917.854","MEAN_MOTION_DOT":"0.00002622","MEAN_ANOMALY":"268.1654","DECAY_DATE":null,"NORAD_CAT_ID":"49450","MEAN_MOTION":"15.08848568","BSTAR":"0.00018273000000","REF_FRAME":"TEME","COUNTRY_CODE":"US","LAUNCH_DATE":"2021-11-13","CENTER_NAME":"EARTH","OBJECT_ID":"2021-104AU","INCLINATION":"53.2143","TLE_LINE1":"1 49450U 21104AU  23124.52291760  .00002622  00000-0  18273-3 0  9990","ECCENTRICITY":"0.00010970","GP_ID":"231243532","TIME_SYSTEM":"UTC","REV_AT_EPOCH":"8281","EPOCH":"2023-05-04T12:33:00.080640","PERIAPSIS":"538.960","MEAN_MOTION_DDOT":"0.0000000000000","OBJECT_TYPE":"PAYLOAD","RA_OF_ASC_NODE":"208.6123","APOAPSIS":"540.478","TLE_LINE2":"2 49450  53.2143 208.6123 0001097  91.9464 268.1654 15.08848568 82818","ARG_OF_PERICENTER":"91.9464","MEAN_ELEMENT_THEORY":"SGP4"}];
